NORAD_CAT_ID,OBJECT_NAME,OBJECT_TYPE,EPOCH,MEAN_MOTION,ECCENTRICITY,INCLINATION,RA_OF_ASC_NODE,ARG_OF_PERICENTER,MEAN_ANOMALY,BSTAR,MEAN_MOTION_DOT,MEAN_MOTION_DDOT,TLE_LINE0,TLE_LINE1,TLE_LINE2,SEMIMAJOR_AXIS,PERIOD,APOGEE,PERIGEE,DECAYED
55432.0,STARLINK-5637,PAYLOAD,2023-02-20 14:00:01,15.55487863,0.0003305,69.9993,33.9444,270.6609,51.4129,-0.020049,-0.01230399,0.0,0 STARLINK-5637,1 55432U 23014AT  23051.58334491 -.01230399  00000-0 -20049-1 0  9992,2 55432  69.9993  33.9444 0003305 270.6609  51.4129 15.55487863  1302,6778.872,92.575,402.977,398.496,0.0
55432.0,STARLINK-5637,PAYLOAD,2023-02-20 22:00:01,15.54631891,0.0003442,69.9996,33.0281,267.5459,120.063,-0.020401,-0.01214865,0.0,0 STARLINK-5637,1 55432U 23014AT  23051.91668981 -.01214865  00000-0 -20401-1 0  9995,2 55432  69.9996  33.0281 0003442 267.5459 120.0630 15.54631891  3375,6781.36,92.626,405.559,400.891,0.0
55432.0,STARLINK-5637,PAYLOAD,2023-02-21 14:00:01,15.52903714,0.0003142,69.9994,31.1981,272.3903,243.028,-0.021763,-0.01235239,0.0,0 STARLINK-5637,1 55432U 23014AT  23052.58334491 -.01235239  00000-0 -21763-1 0  9995,2 55432  69.9994  31.1981 0003142 272.3903 243.0280 15.52903714  1306,6786.39,92.73,410.387,406.123,0.0
55432.0,STARLINK-5637,PAYLOAD,2023-02-22 00:00:00,15.51733488,0.000333,70.0003,30.057,264.815,58.4345,-0.015207,-0.00832808,0.0,0 STARLINK-5637,1 55432U 23014AT  23053.00001157 -.00832808  00000-0 -15207-1 0  9993,2 55432  70.0003  30.0570 0003330 264.8150  58.4345 15.51733488  1309,6789.802,92.799,413.928,409.406,0.0
55432.0,STARLINK-5637,PAYLOAD,2023-02-22 06:00:00,15.51375913,0.0003347,70.0001,29.3733,269.0671,10.0984,-0.019951,-0.01069769,0.0,0 STARLINK-5637,1 55432U 23014AT  23053.25001157 -.01069769  00000-0 -19951-1 0  9999,2 55432  70.0001  29.3733 0003347 269.0671  10.0984 15.51375913  3582,6790.845,92.821,414.983,410.437,0.0
55432.0,STARLINK-5637,PAYLOAD,2023-02-22 14:00:01,15.50558114,0.0003406,69.9998,28.4621,267.7498,72.0599,-0.021226,-0.01102027,0.0,0 STARLINK-5637,1 55432U 23014AT  23053.58334491 -.01102027  00000-0 -21226-1 0  9998,2 55432  69.9998  28.4621 0003406 267.7498  72.0599 15.50558114  3639,6793.232,92.87,417.411,412.784,0.0
55432.0,STARLINK-5637,PAYLOAD,2023-02-22 22:00:00,15.49656077,0.0003361,70.0002,27.5524,265.4347,133.9924,-0.00082513,-0.0004575,0.0,0 STARLINK-5637,1 55432U 23014AT  23053.91667824 -.00045750  00000-0 -82513-3 0  9990,2 55432  70.0002  27.5524 0003361 265.4347 133.9924 15.49656077  3687,6795.868,92.924,420.017,415.449,0.0
55432.0,STARLINK-5637,PAYLOAD,2023-02-23 14:00:01,15.49638637,0.0003243,70.0001,25.734,269.6985,247.7225,-0.0012602,-0.00069535,0.0,0 STARLINK-5637,1 55432U 23014AT  23054.58334491 -.00069535  00000-0 -12602-2 0  9993,2 55432  70.0001  25.7340 0003243 269.6985 247.7225 15.49638637  1302,6795.919,92.925,419.988,415.58,0.0
55432.0,STARLINK-5637,PAYLOAD,2023-02-23 22:00:00,15.4961709,0.0003256,70.0004,24.8252,263.7227,312.6722,0.00037155,0.00020511,0.0,0 STARLINK-5637,1 55432U 23014AT  23054.91667824  .00020511  00000-0  37155-3 0  9999,2 55432  70.0004  24.8252 0003256 263.7227 312.6722 15.49617090  3840,6795.982,92.926,420.06,415.635,0.0
55432.0,STARLINK-5637,PAYLOAD,2023-02-24 14:00:01,15.49854299,0.0003734,70.0,23.0066,267.8078,66.5405,-0.019761,-0.01009359,0.0,0 STARLINK-5637,1 55432U 23014AT  23055.58334491 -.01009359  00000-0 -19761-1 0  9995,2 55432  70.0000  23.0066 0003734 267.8078  66.5405 15.49854299  3948,6795.289,92.912,419.691,414.617,0.0
55432.0,STARLINK-5637,PAYLOAD,2023-02-24 22:00:00,15.49178268,0.0003898,70.0005,22.0979,269.9667,123.2052,-0.025361,-0.01257852,0.0,0 STARLINK-5637,1 55432U 23014AT  23055.91667824 -.01257852  00000-0 -25361-1 0  9997,2 55432  70.0005  22.0979 0003898 269.9667 123.2052 15.49178268  3992,6797.266,92.953,421.78,416.481,0.0
55432.0,STARLINK-5637,PAYLOAD,2023-02-25 14:00:01,15.47420899,0.0003428,70.0,20.283,274.4437,233.4864,-0.025995,-0.01216018,0.0,0 STARLINK-5637,1 55432U 23014AT  23056.58334491 -.01216018  00000-0 -25995-1 0  9994,2 55432  70.0000  20.2830 0003428 274.4437 233.4864 15.47420899  1304,6802.411,93.058,426.608,421.944,0.0
55432.0,STARLINK-5637,PAYLOAD,2023-02-25 22:00:00,15.4658311,0.0003338,70.0003,19.3776,268.5253,295.2164,-0.027196,-0.01233894,0.0,0 STARLINK-5637,1 55432U 23014AT  23056.91667824 -.01233894  00000-0 -27196-1 0  9996,2 55432  70.0003  19.3776 0003338 268.5253 295.2164 15.46583110  4155,6804.867,93.108,429.004,424.461,0.0
55432.0,STARLINK-5637,PAYLOAD,2023-02-26 14:00:01,15.44825409,0.0003544,69.9999,17.5699,269.6056,42.7123,-0.027849,-0.01193254,0.0,0 STARLINK-5637,1 55432U 23014AT  23057.58334491 -.01193254  00000-0 -27849-1 0  9991,2 55432  69.9999  17.5699 0003544 269.6056  42.7123 15.44825409  1304,6810.028,93.214,434.307,429.48,0.0
55432.0,STARLINK-5637,PAYLOAD,2023-02-27 00:00:00,15.43796836,0.0003446,70.0001,16.4427,269.9937,198.062,-0.03062,-0.01259958,0.0,0 STARLINK-5637,1 55432U 23014AT  23058.00001157 -.01259958  00000-0 -30620-1 0  9994,2 55432  70.0001  16.4427 0003446 269.9937 198.0620 15.43796836  1307,6813.053,93.277,437.265,432.57,0.0
55432.0,STARLINK-5637,PAYLOAD,2023-02-27 06:00:00,15.43092243,0.0003479,69.9999,15.7671,274.2114,142.5392,-0.02827,-0.01146226,0.0,0 STARLINK-5637,1 55432U 23014AT  23058.25001157 -.01146226  00000-0 -28270-1 0  9992,2 55432  69.9999  15.7671 0003479 274.2114 142.5392 15.43092243  4354,6815.126,93.319,439.362,434.62,0.0
55432.0,STARLINK-5637,PAYLOAD,2023-02-27 14:00:01,15.42251361,0.000333,69.9998,14.8673,271.1157,196.3083,-0.030402,-0.01193621,0.0,0 STARLINK-5637,1 55432U 23014AT  23058.58334491 -.01193621  00000-0 -30402-1 0  9999,2 55432  69.9998  14.8673 0003330 271.1157 196.3083 15.42251361  4401,6817.603,93.37,441.739,437.198,0.0
55432.0,STARLINK-5637,PAYLOAD,2023-02-27 22:00:01,15.41442974,0.0003228,70.0002,13.9687,267.1207,249.9882,-0.03314,-0.01259553,0.0,0 STARLINK-5637,1 55432U 23014AT  23058.91668981 -.01259553  00000-0 -33140-1 0  9999,2 55432  70.0002  13.9687 0003228 267.1207 249.9882 15.41442974  1301,6819.987,93.419,444.053,439.65,0.0
55432.0,STARLINK-5637,PAYLOAD,2023-02-28 06:00:00,15.40521905,0.0003204,69.9999,13.0713,271.4429,294.2329,-0.031053,-0.01154319,0.0,0 STARLINK-5637,1 55432U 23014AT  23059.25001157 -.01154319  00000-0 -31053-1 0  9998,2 55432  69.9999  13.0713 0003204 271.4429 294.2329 15.40521905  4518,6822.705,93.475,446.756,442.384,0.0
55432.0,STARLINK-5637,PAYLOAD,2023-02-28 14:00:01,15.39669621,0.0003238,69.9997,12.1749,267.9607,345.3022,-0.032831,-0.01183646,0.0,0 STARLINK-5637,1 55432U 23014AT  23059.58334491 -.01183646  00000-0 -32831-1 0  9994,2 55432  69.9997  12.1749 0003238 267.9607 345.3022 15.39669621  4569,6825.223,93.527,449.298,444.877,0.0
55432.0,STARLINK-5637,PAYLOAD,2023-02-28 22:00:00,15.38865979,0.0003352,70.0,11.2798,266.6382,33.1536,-0.035989,-0.01256201,0.0,0 STARLINK-5637,1 55432U 23014AT  23059.91667824 -.01256201  00000-0 -35989-1 0  9995,2 55432  70.0000  11.2798 0003352 266.6382  33.1536 15.38865979  1308,6827.599,93.575,451.752,447.175,0.0
55432.0,STARLINK-5637,PAYLOAD,2023-03-01 06:00:00,15.37954367,0.0003415,69.9998,10.3857,274.3087,71.0228,-0.034327,-0.01171048,0.0,0 STARLINK-5637,1 55432U 23014AT  23060.25001157 -.01171048  00000-0 -34327-1 0  9995,2 55432  69.9998  10.3857 0003415 274.3087  71.0228 15.37954367  4665,6830.296,93.631,454.494,449.829,0.0
55432.0,STARLINK-5637,PAYLOAD,2023-03-01 22:00:00,15.36289538,0.0003313,70.0,8.6012,269.876,163.395,-0.039285,-0.01260344,0.0,0 STARLINK-5637,1 55432U 23014AT  23060.91667824 -.01260344  00000-0 -39285-1 0  9993,2 55432  70.0000   8.6012 0003313 269.8760 163.3950 15.36289538  4767,6835.23,93.732,459.359,454.83,0.0
55432.0,STARLINK-5637,PAYLOAD,2023-03-02 20:00:01,15.33916246,0.0003244,70.0,6.1553,269.9034,187.5815,-0.041422,-0.01234141,0.0,0 STARLINK-5637,1 55432U 23014AT  23061.83334491 -.01234141  00000-0 -41422-1 0  9998,2 55432  70.0000   6.1553 0003244 269.9034 187.5815 15.33916246  4902,6842.278,93.877,466.363,461.924,0.0
55432.0,STARLINK-5637,PAYLOAD,2023-03-03 14:00:01,15.31927341,0.0003147,70.0001,4.1607,268.572,6.5861,-0.040966,-0.01153762,0.0,0 STARLINK-5637,1 55432U 23014AT  23062.58334491 -.01153762  00000-0 -40966-1 0  9992,2 55432  70.0001   4.1607 0003147 268.5720   6.5861 15.31927341  1308,6848.199,93.999,472.22,467.909,0.0
55432.0,STARLINK-5637,PAYLOAD,2023-03-03 22:00:00,15.31129124,0.0003331,70.0003,3.2761,267.1074,45.315,-0.045846,-0.01267332,0.0,0 STARLINK-5637,1 55432U 23014AT  23062.91667824 -.01267332  00000-0 -45846-1 0  9999,2 55432  70.0003   3.2761 0003331 267.1074  45.3150 15.31129124  5076,6850.579,94.048,474.726,470.162,0.0
55432.0,STARLINK-5637,PAYLOAD,2023-03-04 14:00:01,15.29344057,0.0003255,70.0003,1.5104,270.0929,113.825,-0.043884,-0.01141545,0.0,0 STARLINK-5637,1 55432U 23014AT  23063.58334491 -.01141545  00000-0 -43884-1 0  9991,2 55432  70.0003   1.5104 0003255 270.0929 113.8250 15.29344057  5179,6855.909,94.158,480.006,475.542,0.0
55432.0,STARLINK-5637,PAYLOAD,2023-03-04 22:00:00,15.28550864,0.000333,70.0006,0.6295,270.3657,147.7241,-0.049621,-0.01266427,0.0,0 STARLINK-5637,1 55432U 23014AT  23063.91667824 -.01266427  00000-0 -49621-1 0  9999,2 55432  70.0006   0.6295 0003330 270.3657 147.7241 15.28550864  1309,6858.281,94.207,482.429,477.862,0.0
55432.0,STARLINK-5637,PAYLOAD,2023-03-05 04:00:01,15.27858277,0.0003295,70.0004,359.9694,273.618,79.5164,-0.046968,-0.01164914,0.0,0 STARLINK-5637,1 55432U 23014AT  23064.16668981 -.01164914  00000-0 -46968-1 0  9991,2 55432  70.0004 359.9694 0003295 273.6180  79.5164 15.27858277  5260,6860.353,94.25,484.478,479.957,0.0
55432.0,STARLINK-5637,PAYLOAD,2023-03-05 14:00:01,15.26765763,0.0003136,70.0006,358.8705,271.4931,211.9121,-0.047203,-0.01135106,0.0,0 STARLINK-5637,1 55432U 23014AT  23064.58334491 -.01135106  00000-0 -47203-1 0  9997,2 55432  70.0006 358.8705 0003136 271.4931 211.9121 15.26765763  5325,6863.625,94.317,487.643,483.338,0.0
